0 DMSP 5D-3 F16 DEB
1 28976U 03048J   13288.83717195  .00017731  00000-0  38973-2 0  3018
2 28976 098.9306 136.7719 0016526 178.8675 178.3840 14.57485231471840
